IRIDIUM 57 [-]          
1 25273U 98019B   23241.42963948  .00000362  00000+0  12075-3 0  9991
2 25273  86.3920  60.6777 0002120  90.3097 269.8342 14.34879189330649
IRIDIUM 63 [-]          
1 25286U 98021B   23241.42006064  .00000413  00000+0  13726-3 0  9996
2 25286  86.4041 357.6283 0002011  96.5437 263.5988 14.35388022329720
IRIDIUM 69 [-]          
1 25319U 98026A   23241.36685856  .00000674  00000+0  20971-3 0  9992
2 25319  86.4025  12.8701 0003765  61.7878 298.3700 14.39531384328625
IRIDIUM 71 [-]          
1 25320U 98026B   23241.08571348  .00000524  00000+0  16045-3 0  9994
2 25320  86.4022   7.8362 0004311  94.8525 265.3166 14.39878210329101
IRIDIUM 73 [-]          
1 25344U 98032C   23241.33908811  .00000546  00000+0  13588-3 0  9997
2 25344  86.4455 325.6670 0002802  83.9314 276.2210 14.49996887335489
IRIDIUM 82 [-]          
1 25467U 98051A   23241.60559733  .00010087  00000+0  61370-3 0  9992
2 25467  86.3912  63.1458 0149057 208.0889 151.2247 15.01365492324460
IRIDIUM 2 [-]           
1 25527U 98066A   23241.15005916  .00025711  00000+0  67249-3 0  9995
2 25527  85.5219 127.3210 0007523  39.7178 320.4623 15.38583652361883
